NORAD_CAT_ID,OBJECT_NAME,OBJECT_TYPE,EPOCH,MEAN_MOTION,ECCENTRICITY,INCLINATION,RA_OF_ASC_NODE,ARG_OF_PERICENTER,MEAN_ANOMALY,BSTAR,MEAN_MOTION_DOT,MEAN_MOTION_DDOT,TLE_LINE0,TLE_LINE1,TLE_LINE2,SEMIMAJOR_AXIS,PERIOD,APOGEE,PERIGEE,DECAYED
49450.0,STARLINK-3127,PAYLOAD,2023-06-12 20:53:30,15.08837803,0.0001256,53.2169,31.9811,92.7654,267.3482,7.404e-05,8.91e-06,0.0,0 STARLINK-3127,1 49450U 21104AU  23163.87048660  .00000891  00000-0  74040-4 0  9991,2 49450  53.2169  31.9811 0001256  92.7654 267.3482 15.08837803 87943,6917.887,95.438,540.621,538.883,0.0
49450.0,STARLINK-3127,PAYLOAD,2023-06-13 17:33:30,15.08837938,0.0001176,53.2172,28.1148,90.0715,270.0412,0.0001242,1.689e-05,0.0,0 STARLINK-3127,1 49450U 21104AU  23164.73160706  .00001689  00000-0  12420-3 0  9992,2 49450  53.2172  28.1148 0001176  90.0715 270.0412 15.08837938 88885,6917.887,95.438,540.565,538.938,0.0
49450.0,STARLINK-3127,PAYLOAD,2023-06-14 14:13:31,15.08837329,0.0001045,53.2162,24.2498,83.8095,276.3016,9.5947e-05,1.239e-05,0.0,0 STARLINK-3127,1 49450U 21104AU  23165.59272723  .00001239  00000-0  95947-4 0  9997,2 49450  53.2162  24.2498 0001045  83.8095 276.3016 15.08837329 88204,6917.889,95.438,540.476,539.031,0.0
49450.0,STARLINK-3127,PAYLOAD,2023-06-14 20:35:04,15.08836698,9.96e-05,53.2164,23.0595,96.3201,263.7905,0.00021883,3.196e-05,0.0,0 STARLINK-3127,1 49450U 21104AU  23165.85768826  .00003196  00000-0  21883-3 0  9991,2 49450  53.2164  23.0595 0000996  96.3201 263.7905 15.08836698 88242,6917.89,95.438,540.445,539.066,0.0
49450.0,STARLINK-3127,PAYLOAD,2023-06-14 23:45:50,15.08842921,0.0001041,53.2164,22.4646,91.4708,268.6403,0.00010759,1.425e-05,0.0,0 STARLINK-3127,1 49450U 21104AU  23165.99016456  .00001425  00000-0  10759-3 0  9994,2 49450  53.2164  22.4646 0001041  91.4708 268.6403 15.08842921 89077,6917.871,95.437,540.457,539.016,0.0
49450.0,STARLINK-3127,PAYLOAD,2023-06-15 14:04:18,15.08840613,0.0001024,53.217,19.7879,91.0616,269.0494,6.9964e-05,8.26e-06,0.0,0 STARLINK-3127,1 49450U 21104AU  23166.58632809  .00000826  00000-0  69964-4 0  9993,2 49450  53.2170  19.7879 0001024  91.0616 269.0494 15.08840613 89167,6917.879,95.438,540.452,539.035,0.0
49450.0,STARLINK-3127,PAYLOAD,2023-06-16 13:55:05,15.08845803,0.0001076,53.2151,15.3264,94.8697,265.2418,0.00013575,1.874e-05,0.0,0 STARLINK-3127,1 49450U 21104AU  23167.57992362  .00001874  00000-0  13575-3 0  9996,2 49450  53.2151  15.3264 0001076  94.8697 265.2418 15.08845803 88500,6917.863,95.437,540.472,538.983,0.0
49450.0,STARLINK-3127,PAYLOAD,2023-06-16 23:27:23,15.08849164,0.0001054,53.215,13.5427,90.1979,269.9134,0.00021931,3.205e-05,0.0,0 STARLINK-3127,1 49450U 21104AU  23167.97736045  .00003205  00000-0  21931-3 0  9999,2 49450  53.2150  13.5427 0001054  90.1979 269.9134 15.08849164 89374,6917.852,95.437,540.447,538.988,0.0
49450.0,STARLINK-3127,PAYLOAD,2023-06-17 20:07:25,15.0882879,8.22e-05,53.2156,9.6783,83.3095,276.7991,-9.9588e-05,-1.872e-05,0.0,0 STARLINK-3127,1 49450U 21104AU  23168.83849416 -.00001872  00000-0 -99588-4 0  9996,2 49450  53.2156   9.6783 0000822  83.3095 276.7991 15.08828790 88699,6917.915,95.438,540.348,539.211,0.0
49450.0,STARLINK-3127,PAYLOAD,2023-06-17 23:18:12,15.08829945,9.33e-05,53.2154,9.0826,89.6807,270.4292,-7.8695e-05,-1.54e-05,0.0,0 STARLINK-3127,1 49450U 21104AU  23168.97097432 -.00001540  00000-0 -78695-4 0  9992,2 49450  53.2154   9.0826 0000933  89.6807 270.4292 15.08829945 89523,6917.911,95.438,540.422,539.131,0.0
49450.0,STARLINK-3127,PAYLOAD,2023-06-18 19:58:12,15.08844252,9.14e-05,53.2162,5.218,85.3037,274.8059,0.00015358,2.158e-05,0.0,0 STARLINK-3127,1 49450U 21104AU  23169.83208860  .00002158  00000-0  15358-3 0  9997,2 49450  53.2162   5.2180 0000914  85.3037 274.8059 15.08844252 89651,6917.867,95.437,540.365,539.1,0.0
49450.0,STARLINK-3127,PAYLOAD,2023-06-19 11:52:04,15.08837766,9.43e-05,53.2163,2.244,99.9974,260.1125,0.00023007,3.375e-05,0.0,0 STARLINK-3127,1 49450U 21104AU  23170.49449311  .00003375  00000-0  23007-3 0  9991,2 49450  53.2163   2.2440 0000943  99.9974 260.1125 15.08837766 89756,6917.887,95.438,540.405,539.1,0.0
49450.0,STARLINK-3127,PAYLOAD,2023-06-19 19:48:59,15.08844137,9.97e-05,53.2167,0.7578,92.4796,267.631,0.000263,3.901e-05,0.0,0 STARLINK-3127,1 49450U 21104AU  23170.82569062  .00003901  00000-0  26300-3 0  9998,2 49450  53.2167   0.7578 0000997  92.4796 267.6310 15.08844137 88997,6917.868,95.437,540.422,539.043,0.0
49450.0,STARLINK-3127,PAYLOAD,2023-06-19 21:24:22,15.08848351,0.0001019,53.2167,0.4603,93.674,266.4369,0.00026771,3.976e-05,0.0,0 STARLINK-3127,1 49450U 21104AU  23170.89192866  .00003976  00000-0  26771-3 0  9993,2 49450  53.2167   0.4603 0001019  93.6740 266.4369 15.08848351 89816,6917.855,95.437,540.425,539.015,0.0
49450.0,STARLINK-3127,PAYLOAD,2023-06-20 11:42:50,15.08845992,9.22e-05,53.2167,357.7841,96.8206,263.2891,8.5753e-05,1.078e-05,0.0,0 STARLINK-3127,1 49450U 21104AU  23171.48808655  .00001078  00000-0  85753-4 0  9996,2 49450  53.2167 357.7841 0000922  96.8206 263.2891 15.08845992 89095,6917.862,95.437,540.365,539.089,0.0
49450.0,STARLINK-3127,PAYLOAD,2023-06-20 18:04:23,15.08839694,9.95e-05,53.2176,356.595,99.1608,260.9497,-9.4445e-05,-1.79e-05,0.0,0 STARLINK-3127,1 49450U 21104AU  23171.75305071 -.00001790  00000-0 -94445-4 0  9991,2 49450  53.2176 356.5950 0000995  99.1608 260.9497 15.08839694 89947,6917.881,95.438,540.435,539.058,0.0
49450.0,STARLINK-3127,PAYLOAD,2023-06-20 19:39:46,15.08842702,0.0001082,53.2178,356.2976,97.3955,262.716,-5.6997e-05,-1.195e-05,0.0,0 STARLINK-3127,1 49450U 21104AU  23171.81928897 -.00001195  00000-0 -56997-4 0  9994,2 49450  53.2178 356.2976 0001082  97.3955 262.7160 15.08842702 89140,6917.872,95.437,540.486,538.989,0.0
49450.0,STARLINK-3127,PAYLOAD,2023-06-20 21:15:09,15.08842381,0.000102,53.2174,356.0006,85.3009,274.81,-5.1753e-05,-1.111e-05,0.0,0 STARLINK-3127,1 49450U 21104AU  23171.88552947 -.00001111  00000-0 -51753-4 0  9993,2 49450  53.2174 356.0006 0001020  85.3009 274.8100 15.08842381 89159,6917.873,95.437,540.444,539.032,0.0
49450.0,STARLINK-3127,PAYLOAD,2023-06-21 19:30:33,15.08845044,8.63e-05,53.2167,351.8364,84.2083,275.9008,0.00011244,1.502e-05,0.0,0 STARLINK-3127,1 49450U 21104AU  23172.81288931  .00001502  00000-0  11244-3 0  9998,2 49450  53.2167 351.8364 0000863  84.2083 275.9008 15.08845044 89298,6917.865,95.437,540.327,539.133,0.0
49450.0,STARLINK-3127,PAYLOAD,2023-06-21 21:05:56,15.08847949,8.8e-05,53.2168,351.539,86.3545,273.7548,0.00015749,2.22e-05,0.0,0 STARLINK-3127,1 49450U 21104AU  23172.87912787  .00002220  00000-0  15749-3 0  9999,2 49450  53.2168 351.5390 0000880  86.3545 273.7548 15.08847949 90114,6917.856,95.437,540.33,539.112,0.0
49450.0,STARLINK-3127,PAYLOAD,2023-06-22 05:02:52,15.08839217,8.76e-05,53.2171,350.0499,92.6981,267.4111,-2.3604e-05,-6.63e-06,0.0,0 STARLINK-3127,1 49450U 21104AU  23173.21033215 -.00000663  00000-0 -23604-4 0  9999,2 49450  53.2171 350.0499 0000876  92.6981 267.4111 15.08839217 90161,6917.883,95.438,540.354,539.142,0.0
49450.0,STARLINK-3127,PAYLOAD,2023-06-23 17:36:45,15.08842395,9.01e-05,53.2169,343.2121,85.7357,274.3738,7.8124e-05,9.56e-06,0.0,0 STARLINK-3127,1 49450U 21104AU  23174.73385565  .00000956  00000-0  78124-4 0  9995,2 49450  53.2169 343.2121 0000901  85.7357 274.3738 15.08842395 90391,6917.873,95.437,540.361,539.115,0.0
49450.0,STARLINK-3127,PAYLOAD,2023-06-25 15:42:56,15.08840925,0.0001043,53.217,334.5903,76.9553,283.1555,0.00011672,1.57e-05,0.0,0 STARLINK-3127,1 49450U 21104AU  23176.65481883  .00001570  00000-0  11672-3 0  9995,2 49450  53.2170 334.5903 0001043  76.9553 283.1555 15.08840925 90686,6917.878,95.437,540.464,539.021,0.0
49450.0,STARLINK-3127,PAYLOAD,2023-06-26 09:12:11,15.08836204,9.43e-05,53.2167,331.3185,115.28,244.829,1.6106e-05,-3.1e-07,0.0,0 STARLINK-3127,1 49450U 21104AU  23177.38346070 -.00000031  00000-0  16106-4 0  9994,2 49450  53.2167 331.3185 0000943 115.2800 244.8290 15.08836204 90796,6917.892,95.438,540.409,539.105,0.0
49450.0,STARLINK-3127,PAYLOAD,2023-06-27 10:38:21,15.08836176,9.71e-05,53.2175,326.562,96.2269,263.8834,1.9887e-05,2.9e-07,0.0,0 STARLINK-3127,1 49450U 21104AU  23178.44330234  .00000029  00000-0  19887-4 0  9992,2 49450  53.2175 326.5620 0000971  96.2269 263.8834 15.08836176 90954,6917.892,95.438,540.429,539.085,0.0
49450.0,STARLINK-3127,PAYLOAD,2023-06-28 16:50:40,15.08840198,8.38e-05,53.218,320.9118,98.2986,261.8102,0.00013362,1.84e-05,0.0,0 STARLINK-3127,1 49450U 21104AU  23179.70186279  .00001840  00000-0  13362-3 0  9993,2 49450  53.2180 320.9118 0000838  98.2986 261.8102 15.08840198 91147,6917.88,95.438,540.325,539.165,0.0
49450.0,STARLINK-3127,PAYLOAD,2023-07-01 17:58:25,15.0884166,8.99e-05,53.2169,307.2315,90.4292,269.6804,1.8372e-05,5e-08,0.0,0 STARLINK-3127,1 49450U 21104AU  23182.74890282  .00000005  00000-0  18372-4 0  9996,2 49450  53.2169 307.2315 0000899  90.4292 269.6804 15.08841660 91603,6917.875,95.437,540.362,539.118,0.0
49450.0,STARLINK-3127,PAYLOAD,2023-07-03 11:18:26,15.08837335,9.19e-05,53.217,299.4999,97.2788,262.8308,0.00010034,1.309e-05,0.0,0 STARLINK-3127,1 49450U 21104AU  23184.47114215  .00001309  00000-0  10034-3 0  9997,2 49450  53.2170 299.4999 0000919  97.2788 262.8308 15.08837335 91869,6917.889,95.438,540.389,539.118,0.0
49450.0,STARLINK-3127,PAYLOAD,2023-07-04 11:09:14,15.0883274,8.72e-05,53.2173,295.0423,83.8054,276.3038,2.2718e-05,7.4e-07,0.0,0 STARLINK-3127,1 49450U 21104AU  23185.46474983  .00000074  00000-0  22718-4 0  9999,2 49450  53.2173 295.0423 0000872  83.8054 276.3038 15.08832740 92014,6917.903,95.438,540.371,539.164,0.0
49450.0,STARLINK-3127,PAYLOAD,2023-07-04 14:20:00,15.08841224,0.0001017,53.2177,294.4468,90.091,270.0199,3.2272e-05,2.26e-06,0.0,0 STARLINK-3127,1 49450U 21104AU  23185.59722471  .00000226  00000-0  32272-4 0  9996,2 49450  53.2177 294.4468 0001017  90.0910 270.0199 15.08841224 92031,6917.877,95.437,540.445,539.038,0.0
